#dP2023  8 11  6  0  0.00000000      96 __u+U ITR00 EXT  IAC
## 2274 453600.00000000   900.00000000 60167 0.2500000000000
+  117   C06C07C08C09C10C11C12C13C14C16C19C20C21C22C23C24C25
+        C26C27C28C29C30C32C33C34C35C36C37C38C39C40C41C42C43
+        C44C45C46E02E03E04E05E07E08E09E10E11E12E13E14E15E18
+        E19E21E24E26E27E30E31E33E34E36G01G02G03G04G05G06G07
+        G08G09G10G11G12G13G14G15G16G17G18G19G20G21G23G24G25
+        G26G27G28G29G30G31G32J02J03J04R01R02R03R04R05R07R08
+        R09R11R12R13R14R15R16R17R18R19R20R21R22R24R25  0  0
++         9 11 10 10 10  9 10  9  9  9  8  8  7  8  9  9  8
++         9  9  8  8  7  8  9  9  9  8  9 10 10 11  9  7  7
++         9  9  7  8  9  8  9  8  9  8  7  7  8  8  7  8  8
++         8  7  8  8  8  7  7  8  8  7  7  8  8  8  8  7  7
++         7  9  7  7  8  8  8  7  7  8  8  7  8  8  7  8  7
++         8  7  9  8  7  8  8 10 11 12  8  8  8  8  9  9  8
++         8  8  8  7  7  7  9  9  8  9 11  8  9  9  8  0  0
%c M  cc GPS ccc cccc cccc cccc cccc ccccc ccccc ccccc ccccc
%c cc cc ccc ccc cccc cccc cccc cccc ccccc ccccc ccccc ccccc
%f  0.0000000  0.000000000  0.00000000000  0.000000000000000
%f  0.0000000  0.000000000  0.00000000000  0.000000000000000
%i    0    0    0    0      0      0      0      0         0
%i    0    0    0    0      0      0      0      0         0
/* IAC                                ULTRA-RAPID PREDICTION
/* S/V CLOCKS ARE ALIGNED TO GNSS TIME                      
/* G:C1WC2W R:C1PC2P E:C1XC5X C:C2IC6I J:C1CC2S             
/* PCV:IGS20_2247 OL/AL:FES2004  NONE     YN ORB:CoN CLK:CoN
*  2023 08 11 10 45  0.00000000
PC06  -1778.103896  30987.358059  28693.915849    850.160739
PC07 -15879.327835  28453.133933 -26769.599261     86.958145
PC08 -13215.011881  39895.162809   1293.179177    394.168994
PC09   5458.423601  35480.022507  22988.043316    305.962552
PC10  -8934.005430  28739.606851 -29371.624270   -142.127392
PC11 -11972.388864   9958.847912 -23093.775857    773.539019
PC12 -23193.208868  -6240.056425 -14189.065039    861.645441
PC13  -7964.318750  40535.521230   7775.381453    332.296039
PC14 -21145.410498  15833.851963   9096.675362    208.878745
PC16  -3597.998611  29361.712879  30409.216585    -30.969923
PC19  13120.935607 -18002.119654 -16776.300198   -957.746477
PC20  25134.861184 -11968.394104  -1661.212160    369.752817
PC21 -22960.107027  -1865.217429 -15763.029109   -947.709038
PC22  -7134.114746 -14004.258950 -23069.348789   -356.241208
PC23   4433.524298  25530.038370 -10343.696535   -909.167946
PC24 -15966.983115  10857.135664  20135.626560    271.944889
PC25  -6978.860008  26301.797672   6133.774323    187.099889
PC26 -14911.193567  -8963.893606  21813.250330   -161.653124
PC27  24014.618758  12536.492585   6688.259598    182.826957
PC28  16133.047952  20689.995975  -9493.135403    136.681622
PC29   2444.496499 -17054.332806  21946.726048    159.422973
PC30  19552.986733  -3032.614911  19674.743993     -3.334234
PC32  22887.473156   1803.364376  15861.067963   -532.901291
PC33 -13133.172442  18110.599119  16690.719588   -934.521602
PC34 -18643.752358   4274.956400 -20327.803741    234.731236
PC35 -16645.254477 -20155.987530   9715.163870    570.047674
PC36   8045.771559 -25829.710716  -6829.559853   -282.079998
PC37  14408.575622  10269.395429 -21556.249577   -805.649184
PC38 -16737.000840  37982.715502  -6833.228512     97.459829
PC39  -7941.964577  25178.436686  32970.329512     -4.259238
PC40 -22897.691291  22085.863041 -27784.153739    -32.517072
PC41   6397.573715  14389.699096  23084.083966   -889.847243
PC42 -25562.753364  11229.498900    285.588778   -581.461142
PC43  -3431.422874  16702.487761 -22103.821147     34.777794
PC44 -24477.032909 -11683.908158  -6528.659088    196.685937
PC45  -4701.709661 -25287.073767  10859.446098    -12.682716
PC46  15611.998342 -12344.056492 -19571.076246    -75.713866
PE02  11804.068129 -25205.936353  10094.323594     54.999807
PE03   4446.423605 -16460.119363 -24199.814557    -44.881600
PE04  17174.268849  15727.136595  18275.201956   -186.907828
PE05  23688.874558  -7582.152727 -16042.600773      7.988619
PE07 -28951.427364  -5928.252986  -1802.935202    -66.571735
PE08 -16830.408857 -15716.108532 -18607.906414   -128.602560
PE09  28913.421269   5982.180146   1969.116976   -116.530762
PE10  16967.491337  20289.542849  13264.839951   -555.277528
PE11  18346.433083  10427.999685  20742.713435   2699.679813
PE12  13071.738286  26188.070917   4439.585532   -653.691246
PE13 -18321.877231 -11170.153214 -20392.158315    -19.419574
PE14  -8377.286465 -17498.625715  17872.813345    308.131867
PE15 -12908.071965 -26325.670986  -4074.615750    -44.236475
PE18  -4305.883309  19041.005612 -23229.603953    400.769126
PE19  -7429.782234  15631.078674  24018.984220  -1875.176117
PE21 -21909.176943  18356.394583   7705.905286   -546.013716
PE24  19649.726910    245.021229 -22148.795290   -259.683971
PE26 -12727.536946  11101.553903 -24309.679370    189.546872
PE27 -19888.565551    466.279945  21924.706733   -121.801802
PE30  -5752.116817 -17870.962723  22883.679982   -409.042561
PE31   6175.601203  17486.339329 -23058.358991     -2.421298
PE33   -456.713261  25559.646483 -14914.645381     -1.661800
PE34    -82.314753 -25879.296222  14371.200805    -60.949003
PE36  12937.791915 -10306.562201  24542.866020    -99.404298
PG01  15409.853076   2155.062639  21240.430832    169.024844
PG02  17706.705049   8019.253783  18674.859842   -566.659449
PG03  20308.443958  -8813.748896  14442.893320   -192.299795
PG04  25222.275028   -453.258617  -8491.262476    122.305330
PG05 -14109.618262  -6334.237852 -21786.177249   -138.380459
PG06  -4720.078243 -25456.746861   5765.474862    567.728223
PG07   9144.904698 -15215.801960 -19133.510211     98.969196
PG08  25917.850753   6111.110159  -2895.573598   -136.628443
PG09  19667.030066  -8202.873523 -15959.768116    -89.462034
PG10  -8306.499947  22127.366161  11966.190752    -48.828351
PG11 -12584.502151 -21864.876782  -8370.855279   -315.890922
PG12 -20099.233319   4060.453573  16562.937494   -411.583100
PG13 -21110.067099 -13629.052548  -9120.133230    558.718935
PG14  11497.756225 -22148.180679   8870.833454    150.628094
PG15 -26425.302479  -3074.665455  -2703.326414     66.588643
PG16  10247.616014  11347.200253 -22014.546615   -469.661135
PG17   3641.658835 -14693.365044  22255.852888    722.548459
PG18  -7378.347637  17528.468775 -18466.303514   -378.584318
PG19  -5606.575060 -16078.701449  20260.866381    356.164571
PG20  -6998.908381 -16128.558222 -19924.614896    417.824366
PG21  18097.074969  11218.984749  16940.741363    150.901801
PG23 -16692.242469  20540.643804   -163.151346     53.746869
PG24 -17852.388215  -6129.773622  18473.131739   -286.346043
PG25 -19606.896393  16352.852801   6489.133496    461.521420
PG26   1969.287376  19558.617053 -17823.055440    233.358652
PG27  19274.227600  12957.577693 -13505.383041    -20.025365
PG28   4240.738981  25113.975358   7518.590367     77.102007
PG29 -20627.933522   5638.058782 -15869.650592   -607.557198
PG30   2389.363398 -22748.031856 -13155.718139   -497.337335
PG31  10412.621258  23970.735779  -3377.103675   -221.651864
PG32   1397.648249  15614.535417  21643.899010   -538.540437
PJ02 -35422.644421  22952.386578   6147.564749     -2.415923
PJ03 -21122.962623  21084.126236 -25164.028956     -0.921343
PJ04 -25818.837450  32549.928267  12951.282482     70.503379
PR01  16282.367237 -11824.824021 -15671.172883     63.259876
PR02  -1928.969520 -10620.028448 -23071.755973    -22.546678
PR03 -18902.119041  -3781.458048 -16630.253366     83.087052
PR04 -25006.951159   4844.117443  -1196.840561    198.252618
PR05 -17628.360457  10839.322640  14904.269125    117.157291
PR07  19543.151839   3402.779830  16102.620493     62.180371
PR08  25000.727008  -5036.182005   1127.551309    -72.086341
PR09  -1103.163658  23243.588583 -10521.801726    136.101867
PR11  12481.267357  -6684.195752 -21198.195430   -129.201095
PR12  10306.432836 -22245.193510  -7033.384802     30.059602
PR13   2587.807880 -23821.001702   8739.545889    -38.047670
PR14  -7903.464502 -10617.348519  21819.063524     25.075817
PR15 -12806.284041   7922.758805  20616.607912     87.095444
PR16 -10241.729611  22179.180899   7420.276682     17.585926
PR17 -18517.555483 -16786.180590  -5220.335014      7.862569
PR18 -16103.310304  -5152.181930 -19071.643204     96.209686
PR19  -6936.515077   7822.542814 -23270.080428   -243.094219
PR20   9257.449029  19964.393972 -12923.173768    -98.115884
PR21  18518.820583  16318.653988   6361.317352    -29.538951
PR22  15827.245364   4600.518104  19493.923728    111.171909
PR24 -10193.119789 -19905.097425  12306.505172    -20.052389
PR25  17772.666768  17540.117708   5147.920352     43.174631
EOF
